{"type": "FeatureCollection","features": [{"type": "Feature", "geometry": {"type":"Point","coordinates":[-71.4359972,43.0417766]}, "properties": {"osm_id": 7126901106, "osm_type": "nodes", "status": null, "opening_hours": "Mo-Su 08:00-20:00", "access": null, "toilets_disposal": null, "toilets_handwashing": null, "operator": "ClearChoiceMD Urgent Care", "operator_type": "business", "health_facility_bed": null, "staff_count_nurses": null, "health_facility_level": null, "medical_system_western": null, "name": "ClearChoiceMD | CMC Hooksett Urgent Care", "amenity": "clinic", "staff_count_doctors": null, "health_facility_type": null}},{"type": "Feature", "geometry": {"type":"Point","coordinates":[-71.4635898,42.9975864]}, "properties": {"osm_id": 9721942045, "osm_type": "nodes", "status": null, "opening_hours": null, "access": null, "toilets_disposal": null, "toilets_handwashing": null, "operator": null, "operator_type": null, "health_facility_bed": null, "staff_count_nurses": null, "health_facility_level": null, "medical_system_western": null, "name": "North End Dental Care: Christopher Moriarty, DMD", "amenity": "dentist", "staff_count_doctors": null, "health_facility_type": null}},{"type": "Feature", "geometry": {"type":"Point","coordinates":[-71.4640845,43.0003519]}, "properties": {"osm_id": 9721928797, "osm_type": "nodes", "status": null, "opening_hours": null, "access": null, "toilets_disposal": null, "toilets_handwashing": null, "operator": null, "operator_type": null, "health_facility_bed": null, "staff_count_nurses": null, "health_facility_level": null, "medical_system_western": null, "name": "Genoa Healthcare", "amenity": "pharmacy", "staff_count_doctors": null, "health_facility_type": null}},{"type": "Feature", "geometry": {"type":"Point","coordinates":[-71.4641,43.0004457]}, "properties": {"osm_id": 9721928798, "osm_type": "nodes", "status": null, "opening_hours": null, "access": null, "toilets_disposal": null, "toilets_handwashing": null, "operator": null, "operator_type": null, "health_facility_bed": null, "staff_count_nurses": null, "health_facility_level": null, "medical_system_western": null, "name": "mancester commuinty mental health", "amenity": "doctors", "staff_count_doctors": null, "health_facility_type": null}},{"type": "Feature", "geometry": {"type":"Point","coordinates":[-71.4633423,42.9961265]}, "properties": {"osm_id": 9721942031, "osm_type": "nodes", "status": null, "opening_hours": null, "access": null, "toilets_disposal": null, "toilets_handwashing": null, "operator": null, "operator_type": null, "health_facility_bed": null, "staff_count_nurses": null, "health_facility_level": null, "medical_system_western": null, "name": "Carrie Nomikos", "amenity": "doctors", "staff_count_doctors": null, "health_facility_type": null}},{"type": "Feature", "geometry": {"type":"Point","coordinates":[-71.4443977,42.9648962]}, "properties": {"osm_id": 6773008097, "osm_type": "nodes", "status": null, "opening_hours": null, "access": null, "toilets_disposal": null, "toilets_handwashing": null, "operator": null, "operator_type": null, "health_facility_bed": null, "staff_count_nurses": null, "health_facility_level": null, "medical_system_western": null, "name": "CVS Pharmacy", "amenity": "pharmacy", "staff_count_doctors": null, "health_facility_type": null}},{"type": "Feature", "geometry": {"type":"Point","coordinates":[-71.4783557,42.9765573]}, "properties": {"osm_id": 8329225569, "osm_type": "nodes", "status": null, "opening_hours": null, "access": null, "toilets_disposal": null, "toilets_handwashing": null, "operator": null, "operator_type": null, "health_facility_bed": null, "staff_count_nurses": null, "health_facility_level": null, "medical_system_western": null, "name": "CVS Pharmacy", "amenity": "pharmacy", "staff_count_doctors": null, "health_facility_type": null}},{"type": "Feature", "geometry": {"type":"Point","coordinates":[-71.4799233,42.9595219]}, "properties": {"osm_id": 6656923809, "osm_type": "nodes", "status": null, "opening_hours": null, "access": null, "toilets_disposal": null, "toilets_handwashing": null, "operator": null, "operator_type": null, "health_facility_bed": null, "staff_count_nurses": null, "health_facility_level": null, "medical_system_western": null, "name": "CVS Pharmacy", "amenity": "pharmacy", "staff_count_doctors": null, "health_facility_type": null}},{"type": "Feature", "geometry": {"type":"Point","coordinates":[-71.4324502,42.981449]}, "properties": {"osm_id": 9647018021, "osm_type": "nodes", "status": null, "opening_hours": null, "access": null, "toilets_disposal": null, "toilets_handwashing": null, "operator": null, "operator_type": null, "health_facility_bed": null, "staff_count_nurses": null, "health_facility_level": null, "medical_system_western": null, "name": "CVS Pharmacy", "amenity": "pharmacy", "staff_count_doctors": null, "health_facility_type": null}},{"type": "Feature", "geometry": {"type":"Point","coordinates":[-71.4780115,42.9496347]}, "properties": {"osm_id": 13128292901, "osm_type": "nodes", "status": null, "opening_hours": "Mo-Th 08:00-20:00; Fr 08:00-17:00; Sa 08:00-15:00", "access": null, "toilets_disposal": null, "toilets_handwashing": null, "operator": null, "operator_type": null, "health_facility_bed": null, "staff_count_nurses": null, "health_facility_level": null, "medical_system_western": null, "name": "DMC Primary Care", "amenity": "doctors", "staff_count_doctors": null, "health_facility_type": null}},{"type": "Feature", "geometry": {"type":"Point","coordinates":[-71.4389641,42.9855897]}, "properties": {"osm_id": 12479235301, "osm_type": "nodes", "status": null, "opening_hours": "Mo-Fr 08:00-17:00", "access": null, "toilets_disposal": null, "toilets_handwashing": null, "operator": null, "operator_type": null, "health_facility_bed": null, "staff_count_nurses": null, "health_facility_level": null, "medical_system_western": null, "name": "Dartmouth-Hitchcock Ear Nose And Throat Specialists Of SNH", "amenity": "clinic", "staff_count_doctors": null, "health_facility_type": null}},{"type": "Feature", "geometry": {"type":"Point","coordinates":[-71.4393383,42.9855922]}, "properties": {"osm_id": 12479272601, "osm_type": "nodes", "status": null, "opening_hours": "Mo-Fr 08:00-17:00", "access": null, "toilets_disposal": null, "toilets_handwashing": null, "operator": null, "operator_type": null, "health_facility_bed": null, "staff_count_nurses": null, "health_facility_level": null, "medical_system_western": null, "name": "Briarwood Primary Care", "amenity": "clinic", "staff_count_doctors": null, "health_facility_type": null}},{"type": "Feature", "geometry": {"type":"Point","coordinates":[-71.456341,43.008078]}, "properties": {"osm_id": 7797658963, "osm_type": "nodes", "status": null, "opening_hours": null, "access": null, "toilets_disposal": null, "toilets_handwashing": null, "operator": null, "operator_type": null, "health_facility_bed": null, "staff_count_nurses": null, "health_facility_level": null, "medical_system_western": null, "name": "Rite Aid", "amenity": "pharmacy", "staff_count_doctors": null, "health_facility_type": null}},{"type": "Feature", "geometry": {"type":"Point","coordinates":[-71.4660778,43.0048845]}, "properties": {"osm_id": 12193427977, "osm_type": "nodes", "status": null, "opening_hours": null, "access": null, "toilets_disposal": null, "toilets_handwashing": null, "operator": null, "operator_type": null, "health_facility_bed": null, "staff_count_nurses": null, "health_facility_level": null, "medical_system_western": null, "name": "Dr. Vargas Lowy Child Neurology", "amenity": "doctors", "staff_count_doctors": null, "health_facility_type": null}},{"type": "Feature", "geometry": {"type":"Point","coordinates":[-71.4624276,43.0062922]}, "properties": {"osm_id": 5844692242, "osm_type": "nodes", "status": null, "opening_hours": null, "access": null, "toilets_disposal": null, "toilets_handwashing": null, "operator": null, "operator_type": null, "health_facility_bed": null, "staff_count_nurses": null, "health_facility_level": null, "medical_system_western": null, "name": "Vachon Dental", "amenity": "dentist", "staff_count_doctors": null, "health_facility_type": null}},{"type": "Feature", "geometry": {"type":"Point","coordinates":[-71.4601759,43.0067878]}, "properties": {"osm_id": 12193357568, "osm_type": "nodes", "status": null, "opening_hours": null, "access": null, "toilets_disposal": null, "toilets_handwashing": null, "operator": null, "operator_type": null, "health_facility_bed": null, "staff_count_nurses": null, "health_facility_level": null, "medical_system_western": null, "name": "JD Dental", "amenity": "dentist", "staff_count_doctors": null, "health_facility_type": null}},{"type": "Feature", "geometry": {"type":"Point","coordinates":[-71.4622197,43.0063856]}, "properties": {"osm_id": 12193357571, "osm_type": "nodes", "status": null, "opening_hours": null, "access": null, "toilets_disposal": null, "toilets_handwashing": null, "operator": null, "operator_type": null, "health_facility_bed": null, "staff_count_nurses": null, "health_facility_level": null, "medical_system_western": null, "name": "CMC Family Physicians of Manchester", "amenity": "doctors", "staff_count_doctors": null, "health_facility_type": null}},{"type": "Feature", "geometry": {"type":"Point","coordinates":[-71.4684131,43.0066569]}, "properties": {"osm_id": 12193444210, "osm_type": "nodes", "status": null, "opening_hours": null, "access": null, "toilets_disposal": null, "toilets_handwashing": null, "operator": null, "operator_type": null, "health_facility_bed": null, "staff_count_nurses": null, "health_facility_level": null, "medical_system_western": null, "name": "Smiles By Design", "amenity": "dentist", "staff_count_doctors": null, "health_facility_type": null}},{"type": "Feature", "geometry": {"type":"Point","coordinates":[-71.4493608,43.0181742]}, "properties": {"osm_id": 9319796674, "osm_type": "nodes", "status": null, "opening_hours": null, "access": null, "toilets_disposal": null, "toilets_handwashing": null, "operator": null, "operator_type": null, "health_facility_bed": null, "staff_count_nurses": null, "health_facility_level": null, "medical_system_western": null, "name": "ConvenientMD", "amenity": "clinic", "staff_count_doctors": null, "health_facility_type": null}},{"type": "Feature", "geometry": {"type":"Point","coordinates":[-71.4356781,43.0471974]}, "properties": {"osm_id": 7797658958, "osm_type": "nodes", "status": null, "opening_hours": null, "access": null, "toilets_disposal": null, "toilets_handwashing": null, "operator": null, "operator_type": null, "health_facility_bed": null, "staff_count_nurses": null, "health_facility_level": null, "medical_system_western": null, "name": "CVS Pharmacy", "amenity": "pharmacy", "staff_count_doctors": null, "health_facility_type": null}},{"type": "Feature", "geometry": {"type":"Point","coordinates":[-71.5055947,42.9592182]}, "properties": {"osm_id": 13094724522, "osm_type": "nodes", "status": null, "opening_hours": "Mo-Fr 08:30-17:00", "access": null, "toilets_disposal": null, "toilets_handwashing": null, "operator": "Elliot Health System", "operator_type": null, "health_facility_bed": null, "staff_count_nurses": null, "health_facility_level": null, "medical_system_western": null, "name": "Elliot Pharmacy at Bedford", "amenity": "pharmacy", "staff_count_doctors": null, "health_facility_type": null}},{"type": "Feature", "geometry": {"type":"Point","coordinates":[-71.4735791,42.9408679]}, "properties": {"osm_id": 2283684896, "osm_type": "nodes", "status": null, "opening_hours": "Mo-Fr 09:00-19:00; Sa 09:00-17:00; Su 11:00-17:00", "access": null, "toilets_disposal": null, "toilets_handwashing": null, "operator": null, "operator_type": null, "health_facility_bed": null, "staff_count_nurses": null, "health_facility_level": null, "medical_system_western": null, "name": "Target Pharmacy", "amenity": "pharmacy", "staff_count_doctors": null, "health_facility_type": null}},{"type": "Feature", "geometry": {"type":"Point","coordinates":[-71.4611802,43.0452916]}, "properties": {"osm_id": 4430273953, "osm_type": "nodes", "status": null, "opening_hours": null, "access": null, "toilets_disposal": null, "toilets_handwashing": null, "operator": null, "operator_type": null, "health_facility_bed": null, "staff_count_nurses": null, "health_facility_level": null, "medical_system_western": null, "name": "CVS Pharmacy", "amenity": "pharmacy", "staff_count_doctors": null, "health_facility_type": null}},{"type": "Feature", "geometry": {"type":"Point","coordinates":[-71.4335184,42.9820227]}, "properties": {"osm_id": 7797658980, "osm_type": "nodes", "status": null, "opening_hours": null, "access": null, "toilets_disposal": null, "toilets_handwashing": null, "operator": null, "operator_type": null, "health_facility_bed": null, "staff_count_nurses": null, "health_facility_level": null, "medical_system_western": null, "name": "Rite Aid", "amenity": "pharmacy", "staff_count_doctors": null, "health_facility_type": null}},{"type": "Feature", "geometry": {"type":"Point","coordinates":[-71.4279402,42.9852358]}, "properties": {"osm_id": 9887596642, "osm_type": "nodes", "status": null, "opening_hours": "Mo-Fr 08:00-19:30; Sa 09:00-15:00", "access": null, "toilets_disposal": null, "toilets_handwashing": null, "operator": null, "operator_type": null, "health_facility_bed": null, "staff_count_nurses": null, "health_facility_level": null, "medical_system_western": null, "name": "Dr. Dental", "amenity": "dentist", "staff_count_doctors": null, "health_facility_type": null}},{"type": "Feature", "geometry": {"type":"Point","coordinates":[-71.4266186,42.9866713]}, "properties": {"osm_id": 9887596661, "osm_type": "nodes", "status": null, "opening_hours": null, "access": null, "toilets_disposal": null, "toilets_handwashing": null, "operator": "DaVita Dialysis", "operator_type": null, "health_facility_bed": null, "staff_count_nurses": null, "health_facility_level": null, "medical_system_western": null, "name": "DaVita Dialysis", "amenity": "clinic", "staff_count_doctors": null, "health_facility_type": null}},{"type": "Feature", "geometry": {"type":"Point","coordinates":[-71.4768547,42.960702]}, "properties": {"osm_id": 418518740, "osm_type": "nodes", "status": null, "opening_hours": null, "access": null, "toilets_disposal": null, "toilets_handwashing": null, "operator": null, "operator_type": null, "health_facility_bed": null, "staff_count_nurses": null, "health_facility_level": null, "medical_system_western": null, "name": "Bedford Ambulatory Surgical Center", "amenity": "doctors", "staff_count_doctors": null, "health_facility_type": null}},{"type": "Feature", "geometry": {"type":"Point","coordinates":[-71.4763542,42.960568]}, "properties": {"osm_id": 418518741, "osm_type": "nodes", "status": null, "opening_hours": null, "access": null, "toilets_disposal": null, "toilets_handwashing": null, "operator": null, "operator_type": null, "health_facility_bed": null, "staff_count_nurses": null, "health_facility_level": null, "medical_system_western": null, "name": "New Hampshire Gastroenterology", "amenity": "doctors", "staff_count_doctors": null, "health_facility_type": null}},{"type": "Feature", "geometry": {"type":"Point","coordinates":[-71.4778243,42.9611206]}, "properties": {"osm_id": 418518739, "osm_type": "nodes", "status": null, "opening_hours": null, "access": null, "toilets_disposal": null, "toilets_handwashing": null, "operator": null, "operator_type": null, "health_facility_bed": null, "staff_count_nurses": null, "health_facility_level": null, "medical_system_western": null, "name": "Willowbend Family Practice", "amenity": "doctors", "staff_count_doctors": null, "health_facility_type": null}},{"type": "Feature", "geometry": {"type":"Point","coordinates":[-71.4826769,42.9638608]}, "properties": {"osm_id": 947545976, "osm_type": "nodes", "status": null, "opening_hours": null, "access": null, "toilets_disposal": null, "toilets_handwashing": null, "operator": null, "operator_type": null, "health_facility_bed": null, "staff_count_nurses": null, "health_facility_level": null, "medical_system_western": null, "name": "Aspen Dental", "amenity": "dentist", "staff_count_doctors": null, "health_facility_type": null}},{"type": "Feature", "geometry": {"type":"Point","coordinates":[-71.4774551,42.9798895]}, "properties": {"osm_id": 8329226936, "osm_type": "nodes", "status": null, "opening_hours": null, "access": null, "toilets_disposal": null, "toilets_handwashing": null, "operator": null, "operator_type": null, "health_facility_bed": null, "staff_count_nurses": null, "health_facility_level": null, "medical_system_western": null, "name": "Walgreens", "amenity": "pharmacy", "staff_count_doctors": null, "health_facility_type": null}},{"type": "Feature", "geometry": {"type":"Point","coordinates":[-71.4617367,42.9944259]}, "properties": {"osm_id": 12796608822, "osm_type": "nodes", "status": null, "opening_hours": null, "access": null, "toilets_disposal": null, "toilets_handwashing": null, "operator": null, "operator_type": null, "health_facility_bed": null, "staff_count_nurses": null, "health_facility_level": null, "medical_system_western": null, "name": "ExpressMED Urgent Care", "amenity": "clinic", "staff_count_doctors": null, "health_facility_type": null}},{"type": "Feature", "geometry": {"type":"Point","coordinates":[-71.4638909,42.9958069]}, "properties": {"osm_id": 9721980035, "osm_type": "nodes", "status": null, "opening_hours": null, "access": null, "toilets_disposal": null, "toilets_handwashing": null, "operator": null, "operator_type": null, "health_facility_bed": null, "staff_count_nurses": null, "health_facility_level": null, "medical_system_western": null, "name": "Emerson Ecologics", "amenity": "pharmacy", "staff_count_doctors": null, "health_facility_type": null}},{"type": "Feature", "geometry": {"type":"Point","coordinates":[-71.4421506,42.9574321]}, "properties": {"osm_id": 6765324188, "osm_type": "nodes", "status": null, "opening_hours": null, "access": null, "toilets_disposal": null, "toilets_handwashing": null, "operator": null, "operator_type": null, "health_facility_bed": null, "staff_count_nurses": null, "health_facility_level": null, "medical_system_western": null, "name": null, "amenity": "pharmacy", "staff_count_doctors": null, "health_facility_type": null}},{"type": "Feature", "geometry": {"type":"Point","coordinates":[-71.4650462,42.9887729]}, "properties": {"osm_id": 2453684788, "osm_type": "nodes", "status": null, "opening_hours": null, "access": null, "toilets_disposal": null, "toilets_handwashing": null, "operator": null, "operator_type": null, "health_facility_bed": null, "staff_count_nurses": null, "health_facility_level": null, "medical_system_western": null, "name": "Thomas Montemurno", "amenity": "dentist", "staff_count_doctors": null, "health_facility_type": null}},{"type": "Feature", "geometry": {"type":"Point","coordinates":[-71.4643354,43.0065698]}, "properties": {"osm_id": 12193357574, "osm_type": "nodes", "status": null, "opening_hours": null, "access": null, "toilets_disposal": null, "toilets_handwashing": null, "operator": null, "operator_type": null, "health_facility_bed": null, "staff_count_nurses": null, "health_facility_level": null, "medical_system_western": null, "name": "Manchester Family& Cosmetic Dentistry", "amenity": "dentist", "staff_count_doctors": null, "health_facility_type": null}},{"type": "Feature", "geometry": {"type":"Point","coordinates":[-71.4765636,42.9743621]}, "properties": {"osm_id": 7992111174, "osm_type": "nodes", "status": null, "opening_hours": null, "access": null, "toilets_disposal": null, "toilets_handwashing": null, "operator": null, "operator_type": null, "health_facility_bed": null, "staff_count_nurses": null, "health_facility_level": null, "medical_system_western": null, "name": null, "amenity": "dentist", "staff_count_doctors": null, "health_facility_type": null}},{"type": "Feature", "geometry": {"type":"Point","coordinates":[-71.4473079,42.9818486]}, "properties": {"osm_id": 8329226937, "osm_type": "nodes", "status": null, "opening_hours": null, "access": null, "toilets_disposal": null, "toilets_handwashing": null, "operator": null, "operator_type": null, "health_facility_bed": null, "staff_count_nurses": null, "health_facility_level": null, "medical_system_western": null, "name": "Walgreens", "amenity": "pharmacy", "staff_count_doctors": null, "health_facility_type": null}},{"type": "Feature", "geometry": {"type":"Point","coordinates":[-71.4628238,42.9896764]}, "properties": {"osm_id": 9432042647, "osm_type": "nodes", "status": null, "opening_hours": null, "access": null, "toilets_disposal": null, "toilets_handwashing": null, "operator": null, "operator_type": null, "health_facility_bed": null, "staff_count_nurses": null, "health_facility_level": null, "medical_system_western": null, "name": "Gentle Dental", "amenity": "dentist", "staff_count_doctors": null, "health_facility_type": null}},{"type": "Feature", "geometry": {"type":"Point","coordinates":[-71.4524135,42.9692607]}, "properties": {"osm_id": 9633050835, "osm_type": "nodes", "status": null, "opening_hours": null, "access": null, "toilets_disposal": null, "toilets_handwashing": null, "operator": null, "operator_type": null, "health_facility_bed": null, "staff_count_nurses": null, "health_facility_level": null, "medical_system_western": null, "name": "Dentistry & Braces", "amenity": "dentist", "staff_count_doctors": null, "health_facility_type": null}},{"type": "Feature", "geometry": {"type":"Point","coordinates":[-71.4641358,42.9836063]}, "properties": {"osm_id": 12178738500, "osm_type": "nodes", "status": null, "opening_hours": null, "access": null, "toilets_disposal": null, "toilets_handwashing": null, "operator": null, "operator_type": null, "health_facility_bed": null, "staff_count_nurses": null, "health_facility_level": null, "medical_system_western": null, "name": "Dentistry & Braces", "amenity": "dentist", "staff_count_doctors": null, "health_facility_type": null}},{"type": "Feature", "geometry": {"type":"Polygon","coordinates":[[[-71.4679822,42.9737655],[-71.4679341,42.9735049],[-71.4674339,42.9735542],[-71.4674854,42.9738338],[-71.4675601,42.9738264],[-71.4675567,42.9738075],[-71.4676825,42.9737951],[-71.4677578,42.9737877],[-71.4679822,42.9737655]]]}, "properties": {"osm_id": 1047133266, "osm_type": "ways_poly", "status": null, "opening_hours": null, "access": null, "toilets_disposal": null, "toilets_handwashing": null, "operator": null, "operator_type": null, "health_facility_bed": null, "staff_count_nurses": null, "health_facility_level": null, "medical_system_western": null, "name": "Elliot Pharmacy at River's Edge", "amenity": "pharmacy", "staff_count_doctors": null, "health_facility_type": null}},{"type": "Feature", "geometry": {"type":"Polygon","coordinates":[[[-71.4383949,42.9797017],[-71.4383947,42.9796586],[-71.4383853,42.9796587],[-71.4383851,42.9796262],[-71.4382592,42.9796266],[-71.4382595,42.9796795],[-71.4382009,42.9796797],[-71.4382016,42.9798002],[-71.4383838,42.9797997],[-71.4383833,42.9797018],[-71.4383949,42.9797017]]]}, "properties": {"osm_id": 162742802, "osm_type": "ways_poly", "status": null, "opening_hours": null, "access": null, "toilets_disposal": null, "toilets_handwashing": null, "operator": null, "operator_type": null, "health_facility_bed": null, "staff_count_nurses": null, "health_facility_level": null, "medical_system_western": null, "name": "Family Dentistry", "amenity": "dentist", "staff_count_doctors": null, "health_facility_type": null}},{"type": "Feature", "geometry": {"type":"Polygon","coordinates":[[[-71.4740907,42.9922789],[-71.47375,42.992201],[-71.4736029,42.9925455],[-71.4736334,42.9925752],[-71.4739346,42.9926441],[-71.4740907,42.9922789]]]}, "properties": {"osm_id": 1005943788, "osm_type": "ways_poly", "status": null, "opening_hours": null, "access": null, "toilets_disposal": null, "toilets_handwashing": null, "operator": null, "operator_type": null, "health_facility_bed": null, "staff_count_nurses": null, "health_facility_level": null, "medical_system_western": null, "name": "Rite Aid", "amenity": "pharmacy", "staff_count_doctors": null, "health_facility_type": null}},{"type": "Feature", "geometry": {"type":"Polygon","coordinates":[[[-71.4625351,43.0047308],[-71.4625298,43.0047016],[-71.4625019,43.0046849],[-71.4624878,43.0046117],[-71.4622828,43.0046327],[-71.4622906,43.004673],[-71.4622265,43.0046796],[-71.4622364,43.0047309],[-71.4622966,43.0047247],[-71.4623017,43.0047511],[-71.4623704,43.004744],[-71.462373,43.0047576],[-71.4624531,43.0047494],[-71.4624738,43.0047591],[-71.4625143,43.0047549],[-71.4625351,43.0047308]]]}, "properties": {"osm_id": 1003580452, "osm_type": "ways_poly", "status": null, "opening_hours": null, "access": null, "toilets_disposal": null, "toilets_handwashing": null, "operator": null, "operator_type": null, "health_facility_bed": null, "staff_count_nurses": null, "health_facility_level": null, "medical_system_western": null, "name": "Chestnut Family Dental", "amenity": "dentist", "staff_count_doctors": null, "health_facility_type": null}},{"type": "Feature", "geometry": {"type":"Polygon","coordinates":[[[-71.436965,42.9576886],[-71.436933,42.9575704],[-71.4369621,42.9575662],[-71.4369477,42.9575128],[-71.4369156,42.9575174],[-71.4368748,42.9573666],[-71.4367197,42.9573891],[-71.43673,42.9574272],[-71.4365969,42.9574464],[-71.4366738,42.9577308],[-71.436965,42.9576886]]]}, "properties": {"osm_id": 85931678, "osm_type": "ways_poly", "status": null, "opening_hours": null, "access": null, "toilets_disposal": null, "toilets_handwashing": null, "operator": null, "operator_type": null, "health_facility_bed": null, "staff_count_nurses": null, "health_facility_level": null, "medical_system_western": null, "name": "Aspen Dental", "amenity": "dentist", "staff_count_doctors": null, "health_facility_type": null}},{"type": "Feature", "geometry": {"type":"Polygon","coordinates":[[[-71.4642336,43.0475066],[-71.4641364,43.0474876],[-71.4641608,43.0474213],[-71.4640586,43.0474013],[-71.4640906,43.0473138],[-71.4639454,43.0472854],[-71.4639238,43.0473444],[-71.4638115,43.0473224],[-71.4637716,43.0474312],[-71.4636513,43.0474077],[-71.4636106,43.0475186],[-71.4641878,43.0476317],[-71.4642336,43.0475066]]]}, "properties": {"osm_id": 73754747, "osm_type": "ways_poly", "status": null, "opening_hours": null, "access": null, "toilets_disposal": null, "toilets_handwashing": null, "operator": null, "operator_type": null, "health_facility_bed": null, "staff_count_nurses": null, "health_facility_level": null, "medical_system_western": null, "name": "New Hampshire Oncology Hermatology", "amenity": "doctors", "staff_count_doctors": null, "health_facility_type": null}},{"type": "Feature", "geometry": {"type":"Polygon","coordinates":[[[-71.4618114,42.9945032],[-71.4617922,42.9944016],[-71.4617733,42.9944035],[-71.4617632,42.9943501],[-71.4614078,42.9943855],[-71.4614381,42.994546],[-71.4616411,42.9945254],[-71.4616401,42.9945205],[-71.4618114,42.9945032]]]}, "properties": {"osm_id": 1016613809, "osm_type": "ways_poly", "status": null, "opening_hours": null, "access": null, "toilets_disposal": null, "toilets_handwashing": null, "operator": null, "operator_type": null, "health_facility_bed": null, "staff_count_nurses": null, "health_facility_level": null, "medical_system_western": null, "name": "New Hampshire Orthopaedic Center", "amenity": "doctors", "staff_count_doctors": null, "health_facility_type": null}},{"type": "Feature", "geometry": {"type":"Polygon","coordinates":[[[-71.4386048,43.0294124],[-71.4381301,43.0293379],[-71.4380769,43.0295188],[-71.4385517,43.0295933],[-71.4386048,43.0294124]]]}, "properties": {"osm_id": 734026842, "osm_type": "ways_poly", "status": null, "opening_hours": null, "access": null, "toilets_disposal": null, "toilets_handwashing": null, "operator": null, "operator_type": null, "health_facility_bed": null, "staff_count_nurses": null, "health_facility_level": null, "medical_system_western": null, "name": "Gerber Dental Group", "amenity": "dentist", "staff_count_doctors": null, "health_facility_type": null}},{"type": "Feature", "geometry": {"type":"Polygon","coordinates":[[[-71.4671821,42.9412107],[-71.4670876,42.940935],[-71.4667788,42.9409409],[-71.4667755,42.9408492],[-71.4667744,42.940818],[-71.4666592,42.9408347],[-71.4666603,42.9408671],[-71.466663,42.9409431],[-71.4664771,42.9409466],[-71.4664869,42.9412239],[-71.4671821,42.9412107]]]}, "properties": {"osm_id": 194525849, "osm_type": "ways_poly", "status": null, "opening_hours": null, "access": null, "toilets_disposal": null, "toilets_handwashing": null, "operator": null, "operator_type": null, "health_facility_bed": null, "staff_count_nurses": null, "health_facility_level": null, "medical_system_western": null, "name": "New Hampshire Neurospine Institute", "amenity": "doctors", "staff_count_doctors": null, "health_facility_type": null}},{"type": "Feature", "geometry": {"type":"Polygon","coordinates":[[[-71.4700088,42.9736588],[-71.469569,42.9735149],[-71.469313,42.9734478],[-71.4689269,42.9734075],[-71.4686889,42.973407],[-71.4683817,42.9734408],[-71.4679203,42.9734836],[-71.467325,42.9735389],[-71.4673374,42.9737928],[-71.4674115,42.9737861],[-71.4673736,42.9741451],[-71.4673364,42.9743349],[-71.4668189,42.9742923],[-71.466763,42.9745837],[-71.4661917,42.9745695],[-71.4661672,42.9748227],[-71.4671222,42.9749021],[-71.4671156,42.9749672],[-71.4671121,42.9749948],[-71.4670815,42.9752704],[-71.4669019,42.9752677],[-71.4668967,42.9756324],[-71.4668932,42.9756869],[-71.4668811,42.975877],[-71.4675753,42.9758128],[-71.4683975,42.975834],[-71.4680362,42.9763447],[-71.4684222,42.9763921],[-71.4687716,42.9759281],[-71.4688383,42.9758395],[-71.4691901,42.9753149],[-71.4692969,42.9751556],[-71.4700088,42.9736588]]]}, "properties": {"osm_id": 219618091, "osm_type": "ways_poly", "status": null, "opening_hours": null, "access": null, "toilets_disposal": null, "toilets_handwashing": null, "operator": "Elliot Hospital", "operator_type": "state_primary_health_care", "health_facility_bed": null, "staff_count_nurses": null, "health_facility_level": null, "medical_system_western": null, "name": "The Elliot at River's Edge", "amenity": "hospital", "staff_count_doctors": null, "health_facility_type": null}},{"type": "Feature", "geometry": {"type":"Polygon","coordinates":[[[-71.4401066,42.9537563],[-71.4400312,42.9534206],[-71.4399384,42.9534317],[-71.4399506,42.9534864],[-71.4400138,42.9537675],[-71.4401066,42.9537563]]]}, "properties": {"osm_id": 220175109, "osm_type": "ways_poly", "status": null, "opening_hours": null, "access": null, "toilets_disposal": null, "toilets_handwashing": null, "operator": null, "operator_type": null, "health_facility_bed": null, "staff_count_nurses": null, "health_facility_level": null, "medical_system_western": null, "name": "Oasis Dental", "amenity": "dentist", "staff_count_doctors": null, "health_facility_type": null}},{"type": "Feature", "geometry": {"type":"Polygon","coordinates":[[[-71.4777087,42.9782144],[-71.4776673,42.9781984],[-71.4776525,42.9781827],[-71.4775244,42.9781333],[-71.4775366,42.9781164],[-71.4774642,42.9780884],[-71.4774003,42.9781771],[-71.4776626,42.9782784],[-71.4777087,42.9782144]]]}, "properties": {"osm_id": 818769071, "osm_type": "ways_poly", "status": null, "opening_hours": "Mo-Fr 08:00-17:00", "access": null, "toilets_disposal": null, "toilets_handwashing": null, "operator": null, "operator_type": null, "health_facility_bed": null, "staff_count_nurses": null, "health_facility_level": null, "medical_system_western": null, "name": "Amoskeag Urgent Dental Care", "amenity": "dentist", "staff_count_doctors": null, "health_facility_type": null}},{"type": "Feature", "geometry": {"type":"Polygon","coordinates":[[[-71.501464,42.9922449],[-71.5014528,42.9922272],[-71.5014283,42.9922229],[-71.5014246,42.9922241],[-71.5014121,42.9922043],[-71.5014237,42.9922004],[-71.5014115,42.992181],[-71.5013998,42.992185],[-71.50139,42.9921695],[-71.5013877,42.9921658],[-71.5013432,42.9921809],[-71.5013318,42.9921847],[-71.5013073,42.992146],[-71.5012134,42.9921778],[-71.501246,42.9922294],[-71.5012301,42.9922348],[-71.5012641,42.9922886],[-71.5012823,42.9922825],[-71.5013,42.9923104],[-71.5013681,42.9922874],[-71.5013699,42.9922901],[-71.5014549,42.9922613],[-71.501464,42.9922449]]]}, "properties": {"osm_id": 863195870, "osm_type": "ways_poly", "status": null, "opening_hours": "Mo-Th 08:00-17:00", "access": null, "toilets_disposal": null, "toilets_handwashing": null, "operator": null, "operator_type": null, "health_facility_bed": null, "staff_count_nurses": null, "health_facility_level": null, "medical_system_western": null, "name": "Mann Family Dental", "amenity": "dentist", "staff_count_doctors": null, "health_facility_type": null}},{"type": "Feature", "geometry": {"type":"Polygon","coordinates":[[[-71.4734725,43.0050589],[-71.4733652,43.0049857],[-71.473339,43.0050062],[-71.4732357,43.0049357],[-71.4731774,43.0049814],[-71.4732169,43.0050083],[-71.4731752,43.0050409],[-71.4732115,43.0050657],[-71.47326,43.0050277],[-71.473395,43.0051197],[-71.4734725,43.0050589]]]}, "properties": {"osm_id": 180986244, "osm_type": "ways_poly", "status": null, "opening_hours": null, "access": null, "toilets_disposal": null, "toilets_handwashing": null, "operator": null, "operator_type": null, "health_facility_bed": null, "staff_count_nurses": null, "health_facility_level": null, "medical_system_western": null, "name": "Amoskeag Chiropractic", "amenity": "doctors", "staff_count_doctors": null, "health_facility_type": null}},{"type": "Feature", "geometry": {"type":"Polygon","coordinates":[[[-71.4775293,42.978363],[-71.477448,42.978334],[-71.4774575,42.9783197],[-71.4774037,42.9783004],[-71.4773271,42.9784151],[-71.4774867,42.9784722],[-71.4775179,42.9784255],[-71.4774934,42.9784167],[-71.4775293,42.978363]]]}, "properties": {"osm_id": 818769069, "osm_type": "ways_poly", "status": null, "opening_hours": "Mo-Th 08:00-17:00", "access": null, "toilets_disposal": null, "toilets_handwashing": null, "operator": null, "operator_type": null, "health_facility_bed": null, "staff_count_nurses": null, "health_facility_level": null, "medical_system_western": null, "name": "Amoskeag Family Dentistry", "amenity": "dentist", "staff_count_doctors": null, "health_facility_type": null}},{"type": "Feature", "geometry": {"type":"Polygon","coordinates":[[[-71.3818587,42.9181525],[-71.3818396,42.9180615],[-71.3817303,42.9180737],[-71.3817493,42.9181648],[-71.3818587,42.9181525]]]}, "properties": {"osm_id": 206614380, "osm_type": "ways_poly", "status": null, "opening_hours": null, "access": null, "toilets_disposal": null, "toilets_handwashing": null, "operator": null, "operator_type": null, "health_facility_bed": null, "staff_count_nurses": null, "health_facility_level": null, "medical_system_western": null, "name": "Daniela E. Verani", "amenity": "doctors", "staff_count_doctors": null, "health_facility_type": null}},{"type": "Feature", "geometry": {"type":"Polygon","coordinates":[[[-71.4779859,42.9652446],[-71.47794,42.965073],[-71.4777342,42.9651025],[-71.4777416,42.9651301],[-71.4777236,42.9651326],[-71.4777344,42.9651729],[-71.4777544,42.96517],[-71.4777822,42.9652738],[-71.4779859,42.9652446]]]}, "properties": {"osm_id": 98964445, "osm_type": "ways_poly", "status": null, "opening_hours": null, "access": null, "toilets_disposal": null, "toilets_handwashing": null, "operator": null, "operator_type": null, "health_facility_bed": null, "staff_count_nurses": null, "health_facility_level": null, "medical_system_western": null, "name": "The Walking Clinic", "amenity": "doctors", "staff_count_doctors": null, "health_facility_type": null}},{"type": "Feature", "geometry": {"type":"Polygon","coordinates":[[[-71.4646092,42.9989978],[-71.4645977,42.9989348],[-71.4645587,42.9989386],[-71.4645489,42.998885],[-71.4643897,42.9989005],[-71.4643873,42.9988874],[-71.4643219,42.9988937],[-71.4643245,42.9989079],[-71.4642638,42.9989138],[-71.4642652,42.9989211],[-71.4642505,42.9989225],[-71.4642561,42.9989533],[-71.4642701,42.9989519],[-71.4642773,42.9989915],[-71.4642637,42.9989928],[-71.464269,42.9990223],[-71.4642834,42.9990209],[-71.4642849,42.9990291],[-71.4643456,42.9990232],[-71.4643476,42.9990345],[-71.4645726,42.9990126],[-71.4645706,42.9990016],[-71.4646092,42.9989978]]]}, "properties": {"osm_id": 1013562787, "osm_type": "ways_poly", "status": null, "opening_hours": null, "access": null, "toilets_disposal": null, "toilets_handwashing": null, "operator": null, "operator_type": null, "health_facility_bed": null, "staff_count_nurses": null, "health_facility_level": null, "medical_system_western": null, "name": "Community Resources For Justice", "amenity": "doctors", "staff_count_doctors": null, "health_facility_type": null}},{"type": "Feature", "geometry": {"type":"Polygon","coordinates":[[[-71.4617732,42.9943491],[-71.4617424,42.9941837],[-71.4613683,42.994221],[-71.4613991,42.9943864],[-71.4614078,42.9943855],[-71.4617632,42.9943501],[-71.4617732,42.9943491]]]}, "properties": {"osm_id": 1016613810, "osm_type": "ways_poly", "status": null, "opening_hours": null, "access": null, "toilets_disposal": null, "toilets_handwashing": null, "operator": null, "operator_type": null, "health_facility_bed": null, "staff_count_nurses": null, "health_facility_level": null, "medical_system_western": null, "name": "Apple Therapy Services", "amenity": "doctors", "staff_count_doctors": null, "health_facility_type": null}},{"type": "Feature", "geometry": {"type":"Polygon","coordinates":[[[-71.463469,42.9749573],[-71.4634674,42.9748578],[-71.463276,42.9748594],[-71.4632776,42.9749589],[-71.463469,42.9749573]]]}, "properties": {"osm_id": 1047116126, "osm_type": "ways_poly", "status": null, "opening_hours": null, "access": null, "toilets_disposal": null, "toilets_handwashing": null, "operator": null, "operator_type": null, "health_facility_bed": null, "staff_count_nurses": null, "health_facility_level": null, "medical_system_western": null, "name": "Ken's Pharmacy", "amenity": "pharmacy", "staff_count_doctors": null, "health_facility_type": null}},{"type": "Feature", "geometry": {"type":"Polygon","coordinates":[[[-71.4430872,43.0136026],[-71.4422658,43.0096747],[-71.4420668,43.0096487],[-71.4407149,43.0108157],[-71.439693,43.0117199],[-71.439406,43.0119709],[-71.4391405,43.0121396],[-71.4389098,43.012222],[-71.4387569,43.0122533],[-71.4386738,43.0122867],[-71.4386845,43.0123965],[-71.4386523,43.0125475],[-71.4385799,43.0126927],[-71.4384324,43.0128554],[-71.4381078,43.0131555],[-71.4399396,43.0143845],[-71.4412238,43.0146577],[-71.4428023,43.0147977],[-71.4427276,43.0137972],[-71.4428537,43.0136231],[-71.4430872,43.0136026]]]}, "properties": {"osm_id": 338909307, "osm_type": "ways_poly", "status": null, "opening_hours": null, "access": null, "toilets_disposal": null, "toilets_handwashing": null, "operator": "Veterans Health Administration", "operator_type": null, "health_facility_bed": null, "staff_count_nurses": null, "health_facility_level": null, "medical_system_western": null, "name": "VA Medical Center", "amenity": "hospital", "staff_count_doctors": null, "health_facility_type": null}},{"type": "Feature", "geometry": {"type":"Polygon","coordinates":[[[-71.4261909,43.0131814],[-71.4257329,43.010711],[-71.4255306,43.0102282],[-71.4254389,43.0101046],[-71.4252273,43.0098194],[-71.4249834,43.0086364],[-71.4246563,43.0075664],[-71.424341,43.0060745],[-71.4242344,43.0054933],[-71.4232064,43.0055351],[-71.4231387,43.0051945],[-71.4212243,43.004874],[-71.4212659,43.0056482],[-71.4216644,43.0056221],[-71.4217805,43.006665],[-71.4200467,43.0067807],[-71.4200783,43.0070283],[-71.4187704,43.0071176],[-71.4190561,43.0091544],[-71.4192833,43.0095115],[-71.4194263,43.012254],[-71.4245195,43.0129639],[-71.4261909,43.0131814]]]}, "properties": {"osm_id": 73501236, "osm_type": "ways_poly", "status": null, "opening_hours": null, "access": null, "toilets_disposal": null, "toilets_handwashing": null, "operator": null, "operator_type": null, "health_facility_bed": null, "staff_count_nurses": null, "health_facility_level": null, "medical_system_western": null, "name": "Dartmouth-Hitchcock Manchester", "amenity": "clinic", "staff_count_doctors": null, "health_facility_type": null}},{"type": "Feature", "geometry": {"type":"Polygon","coordinates":[[[-71.4618845,42.9399952],[-71.4618584,42.9398757],[-71.461773,42.9398271],[-71.4617845,42.9398163],[-71.4617075,42.9397724],[-71.4616904,42.9397885],[-71.4616075,42.9397414],[-71.4614501,42.9397598],[-71.4614531,42.9397735],[-71.4612891,42.9397926],[-71.4613469,42.940058],[-71.4618845,42.9399952]]]}, "properties": {"osm_id": 265358841, "osm_type": "ways_poly", "status": null, "opening_hours": null, "access": null, "toilets_disposal": null, "toilets_handwashing": null, "operator": null, "operator_type": null, "health_facility_bed": null, "staff_count_nurses": null, "health_facility_level": null, "medical_system_western": null, "name": "River Road Pediatrics", "amenity": "doctors", "staff_count_doctors": null, "health_facility_type": null}},{"type": "Feature", "geometry": {"type":"Polygon","coordinates":[[[-71.4641414,43.001966],[-71.4641058,43.0017695],[-71.464134,43.0017667],[-71.4641238,43.0017102],[-71.4640451,43.0017178],[-71.4640484,43.0017363],[-71.4636164,43.0017781],[-71.4636276,43.0018401],[-71.4635554,43.0018471],[-71.4635637,43.0018931],[-71.4636362,43.001886],[-71.4636592,43.0020128],[-71.4641414,43.001966]]]}, "properties": {"osm_id": 1013088779, "osm_type": "ways_poly", "status": null, "opening_hours": null, "access": null, "toilets_disposal": null, "toilets_handwashing": null, "operator": null, "operator_type": null, "health_facility_bed": null, "staff_count_nurses": null, "health_facility_level": null, "medical_system_western": null, "name": "Rite Aid", "amenity": "pharmacy", "staff_count_doctors": null, "health_facility_type": null}},{"type": "Feature", "geometry": {"type":"Polygon","coordinates":[[[-71.3819752,42.9181394],[-71.3819561,42.9180484],[-71.3818396,42.9180615],[-71.3818587,42.9181525],[-71.3819752,42.9181394]]]}, "properties": {"osm_id": 206614386, "osm_type": "ways_poly", "status": null, "opening_hours": null, "access": null, "toilets_disposal": null, "toilets_handwashing": null, "operator": null, "operator_type": null, "health_facility_bed": null, "staff_count_nurses": null, "health_facility_level": null, "medical_system_western": null, "name": "Miles of Smiles", "amenity": "dentist", "staff_count_doctors": null, "health_facility_type": null}},{"type": "Feature", "geometry": {"type":"Polygon","coordinates":[[[-71.4315761,42.9836551],[-71.4315284,42.9835894],[-71.4314714,42.9836115],[-71.4313814,42.9834877],[-71.431367,42.9834933],[-71.431145,42.9835796],[-71.4312827,42.9837692],[-71.4315761,42.9836551]]]}, "properties": {"osm_id": 164600344, "osm_type": "ways_poly", "status": null, "opening_hours": null, "access": null, "toilets_disposal": null, "toilets_handwashing": null, "operator": "Elliot Hospital", "operator_type": null, "health_facility_bed": null, "staff_count_nurses": null, "health_facility_level": null, "medical_system_western": null, "name": "Elliot Imaging Center", "amenity": "doctors", "staff_count_doctors": null, "health_facility_type": null}},{"type": "Feature", "geometry": {"type":"Polygon","coordinates":[[[-71.4317008,42.9838711],[-71.431638,42.9837845],[-71.4316721,42.9837713],[-71.4316283,42.983711],[-71.4316194,42.9837145],[-71.4315761,42.9836551],[-71.4312827,42.9837692],[-71.4314324,42.9839754],[-71.4317008,42.9838711]]]}, "properties": {"osm_id": 164600342, "osm_type": "ways_poly", "status": null, "opening_hours": null, "access": null, "toilets_disposal": null, "toilets_handwashing": null, "operator": "Elliot Hospital", "operator_type": null, "health_facility_bed": null, "staff_count_nurses": null, "health_facility_level": null, "medical_system_western": null, "name": "Derryfield Medical Group", "amenity": "doctors", "staff_count_doctors": null, "health_facility_type": null}},{"type": "Feature", "geometry": {"type":"Polygon","coordinates":[[[-71.4397803,42.9851632],[-71.4396544,42.9827367],[-71.4396539,42.9827264],[-71.4390185,42.9825233],[-71.4387675,42.9824491],[-71.4384177,42.9823866],[-71.4379291,42.9823143],[-71.4359747,42.9820096],[-71.4359454,42.982078],[-71.4357932,42.9820702],[-71.4355849,42.9820663],[-71.4351791,42.9820663],[-71.4349174,42.982076],[-71.4347172,42.9820858],[-71.4345677,42.9820995],[-71.4345763,42.9821255],[-71.4346325,42.9822953],[-71.4346421,42.9823245],[-71.4347063,42.9825186],[-71.4347193,42.982558],[-71.4349334,42.983205],[-71.4360308,42.9831405],[-71.4360361,42.9834101],[-71.4364393,42.9834335],[-71.4364022,42.9836617],[-71.4362711,42.9844667],[-71.4352538,42.9844316],[-71.4354247,42.9852421],[-71.4359147,42.985211],[-71.4359395,42.9852094],[-71.4360276,42.9852038],[-71.4361042,42.9851989],[-71.4361616,42.9851953],[-71.4370744,42.9851872],[-71.4382626,42.9851767],[-71.4387762,42.9851721],[-71.4397803,42.9851632]]]}, "properties": {"osm_id": 162742801, "osm_type": "ways_poly", "status": null, "opening_hours": "24/7", "access": null, "toilets_disposal": null, "toilets_handwashing": null, "operator": null, "operator_type": null, "health_facility_bed": null, "staff_count_nurses": null, "health_facility_level": null, "medical_system_western": null, "name": "Elliot Hospital", "amenity": "hospital", "staff_count_doctors": null, "health_facility_type": null}},{"type": "Feature", "geometry": {"type":"Polygon","coordinates":[[[-71.4238205,43.0101934],[-71.4237038,43.0101865],[-71.4236981,43.0102374],[-71.4232348,43.0102098],[-71.4232268,43.0102815],[-71.4229657,43.010266],[-71.422975,43.0101824],[-71.4229825,43.0101155],[-71.4227787,43.0101034],[-71.4227711,43.0101723],[-71.4227618,43.0102553],[-71.4226476,43.0102485],[-71.4226394,43.0103221],[-71.4222655,43.0102998],[-71.4222698,43.010261],[-71.4221468,43.0102537],[-71.422133,43.0103776],[-71.4222261,43.0103832],[-71.4222185,43.0104511],[-71.4221977,43.0106382],[-71.4226638,43.0106659],[-71.4226724,43.0105891],[-71.4227188,43.0105918],[-71.4228624,43.0106002],[-71.4228763,43.0107291],[-71.422886,43.0108183],[-71.4228748,43.0109763],[-71.4227754,43.0109715],[-71.4227617,43.011086],[-71.4227788,43.0110873],[-71.4228642,43.0110937],[-71.4228296,43.0112723],[-71.4230205,43.0112841],[-71.4231258,43.01129],[-71.423135,43.0112915],[-71.4231359,43.0112751],[-71.4236848,43.0112959],[-71.4236983,43.011174],[-71.4237351,43.0111778],[-71.4237455,43.011111],[-71.4237074,43.0111087],[-71.4237294,43.0108554],[-71.4231771,43.0108273],[-71.4231798,43.0108025],[-71.4232204,43.0108045],[-71.4232249,43.0107472],[-71.4232407,43.0107478],[-71.4232468,43.0106605],[-71.4231754,43.010657],[-71.4231793,43.0106185],[-71.4232469,43.0106212],[-71.4232539,43.0105423],[-71.4236852,43.010568],[-71.4236904,43.0105211],[-71.4237123,43.0103244],[-71.4238053,43.0103299],[-71.4238205,43.0101934]]]}, "properties": {"osm_id": 73501245, "osm_type": "ways_poly", "status": null, "opening_hours": null, "access": null, "toilets_disposal": null, "toilets_handwashing": null, "operator": null, "operator_type": null, "health_facility_bed": null, "staff_count_nurses": null, "health_facility_level": null, "medical_system_western": null, "name": "Dartmouth Hitchcock Clinics Manchester", "amenity": "clinic", "staff_count_doctors": null, "health_facility_type": null}},{"type": "Feature", "geometry": {"type":"Polygon","coordinates":[[[-71.4343496,42.9878082],[-71.434341,42.9877455],[-71.4343311,42.9877462],[-71.4343213,42.9876743],[-71.4341064,42.98769],[-71.4341073,42.9876964],[-71.433992,42.9877049],[-71.4339914,42.9877007],[-71.43394,42.9877044],[-71.4339365,42.9876786],[-71.4340025,42.9876737],[-71.4339836,42.9875362],[-71.433745,42.9875537],[-71.4337633,42.9876872],[-71.4338058,42.9876841],[-71.4338341,42.9878894],[-71.4339985,42.9878773],[-71.4340042,42.9879187],[-71.4340112,42.9879182],[-71.4340129,42.9879308],[-71.434087,42.9879253],[-71.4340852,42.9879126],[-71.4340918,42.9879121],[-71.4340879,42.9878838],[-71.4341278,42.9878809],[-71.4341275,42.987879],[-71.4343468,42.9878629],[-71.4343394,42.987809],[-71.4343496,42.9878082]]]}, "properties": {"osm_id": 1040349036, "osm_type": "ways_poly", "status": null, "opening_hours": null, "access": null, "toilets_disposal": null, "toilets_handwashing": null, "operator": null, "operator_type": null, "health_facility_bed": null, "staff_count_nurses": null, "health_facility_level": null, "medical_system_western": null, "name": "Farnum Center Outpatient Services", "amenity": "clinic", "staff_count_doctors": null, "health_facility_type": null}},{"type": "Feature", "geometry": {"type":"Polygon","coordinates":[[[-71.4323822,42.9832339],[-71.4322437,42.9830434],[-71.4315746,42.9833038],[-71.4317263,42.9835125],[-71.4318848,42.9834508],[-71.4319062,42.9834803],[-71.4319898,42.9834478],[-71.431955,42.9834],[-71.4320162,42.9833762],[-71.4320255,42.9833889],[-71.4320842,42.983366],[-71.4320751,42.9833534],[-71.4323822,42.9832339]]]}, "properties": {"osm_id": 162742815, "osm_type": "ways_poly", "status": null, "opening_hours": null, "access": null, "toilets_disposal": null, "toilets_handwashing": null, "operator": "New Hampshire's Hospital for Children", "operator_type": null, "health_facility_bed": null, "staff_count_nurses": null, "health_facility_level": null, "medical_system_western": null, "name": "Elliot Pediatric Services", "amenity": "doctors", "staff_count_doctors": null, "health_facility_type": null}},{"type": "Feature", "geometry": {"type":"Polygon","coordinates":[[[-71.4635915,43.0067358],[-71.4635558,43.0065954],[-71.4634615,43.0066082],[-71.4634746,43.0066597],[-71.463456,43.0066622],[-71.463472,43.0067254],[-71.463481,43.0067242],[-71.4634964,43.0067846],[-71.4634879,43.0067857],[-71.4635055,43.0068549],[-71.4635447,43.0068496],[-71.4635269,43.0067794],[-71.4635679,43.0067738],[-71.4635594,43.0067401],[-71.4635915,43.0067358]]]}, "properties": {"osm_id": 362814480, "osm_type": "ways_poly", "status": null, "opening_hours": "Mo 08:00-17:00; Tu-Th 08:00-19:00; Sa \"by appointment\"", "access": null, "toilets_disposal": null, "toilets_handwashing": null, "operator": null, "operator_type": null, "health_facility_bed": null, "staff_count_nurses": null, "health_facility_level": null, "medical_system_western": null, "name": "Webster Dental Associates", "amenity": "dentist", "staff_count_doctors": null, "health_facility_type": null}},{"type": "Feature", "geometry": {"type":"Polygon","coordinates":[[[-71.4796032,42.9682432],[-71.4795138,42.9682123],[-71.4794376,42.9681861],[-71.4794062,42.968235],[-71.4794397,42.9682466],[-71.4793947,42.9683166],[-71.4795263,42.9683623],[-71.4796032,42.9682432]]]}, "properties": {"osm_id": 848956713, "osm_type": "ways_poly", "status": null, "opening_hours": null, "access": null, "toilets_disposal": null, "toilets_handwashing": null, "operator": null, "operator_type": null, "health_facility_bed": null, "staff_count_nurses": null, "health_facility_level": null, "medical_system_western": null, "name": "Family & Cosmetic Dentistry", "amenity": "dentist", "staff_count_doctors": null, "health_facility_type": null}},{"type": "Feature", "geometry": {"type":"Polygon","coordinates":[[[-71.4317263,42.9835125],[-71.4315746,42.9833038],[-71.4313054,42.9834086],[-71.431367,42.9834933],[-71.4313814,42.9834877],[-71.4314714,42.9836115],[-71.4315284,42.9835894],[-71.4317263,42.9835125]]]}, "properties": {"osm_id": 164600343, "osm_type": "ways_poly", "status": null, "opening_hours": null, "access": null, "toilets_disposal": null, "toilets_handwashing": null, "operator": "Elliot Hospital", "operator_type": null, "health_facility_bed": null, "staff_count_nurses": null, "health_facility_level": null, "medical_system_western": null, "name": "Doctors Park Pediatrics", "amenity": "doctors", "staff_count_doctors": null, "health_facility_type": null}},{"type": "Feature", "geometry": {"type":"Polygon","coordinates":[[[-71.4053828,42.9270409],[-71.4053161,42.92693],[-71.4050585,42.927013],[-71.4051251,42.9271239],[-71.4053828,42.9270409]]]}, "properties": {"osm_id": 142664396, "osm_type": "ways_poly", "status": null, "opening_hours": null, "access": null, "toilets_disposal": null, "toilets_handwashing": null, "operator": null, "operator_type": null, "health_facility_bed": null, "staff_count_nurses": null, "health_facility_level": null, "medical_system_western": null, "name": "HealthSource of Londonderry", "amenity": "doctors", "staff_count_doctors": null, "health_facility_type": null}},{"type": "Feature", "geometry": {"type":"Polygon","coordinates":[[[-71.4372033,42.9585915],[-71.437164,42.958423],[-71.4371334,42.9584268],[-71.4371245,42.9583889],[-71.4368499,42.9584232],[-71.4368982,42.9586297],[-71.4372033,42.9585915]]]}, "properties": {"osm_id": 220175064, "osm_type": "ways_poly", "status": null, "opening_hours": "Mo-Fr 07:00-17:00; Sa 09:00-13:00", "access": null, "toilets_disposal": null, "toilets_handwashing": null, "operator": "Concentra", "operator_type": null, "health_facility_bed": null, "staff_count_nurses": null, "health_facility_level": null, "medical_system_western": null, "name": "Concentra Urgent Care", "amenity": "clinic", "staff_count_doctors": null, "health_facility_type": null}},{"type": "Feature", "geometry": {"type":"Polygon","coordinates":[[[-71.4755452,42.9918943],[-71.4755155,42.991175],[-71.4754933,42.9904575],[-71.4754913,42.9903918],[-71.4754074,42.9903907],[-71.4750115,42.9903999],[-71.4747682,42.9904059],[-71.4746779,42.9904073],[-71.4745078,42.9904128],[-71.4744205,42.9904148],[-71.4742442,42.9904189],[-71.4741554,42.9904897],[-71.4740328,42.9904941],[-71.4739157,42.9904354],[-71.4737424,42.9908116],[-71.4736844,42.990809],[-71.4736254,42.9908043],[-71.4736239,42.9908162],[-71.4734496,42.9908031],[-71.4734566,42.9907467],[-71.4734132,42.9907432],[-71.4734175,42.9907039],[-71.4734839,42.9900654],[-71.4728796,42.9900317],[-71.4728763,42.9900637],[-71.4728118,42.9900601],[-71.4727929,42.9902426],[-71.4725312,42.990228],[-71.4724021,42.9902219],[-71.472334,42.9902187],[-71.4722336,42.991051],[-71.472609,42.9910733],[-71.4734297,42.9911222],[-71.4736923,42.9911378],[-71.4738557,42.9912563],[-71.4737736,42.9914279],[-71.4736002,42.991822],[-71.4735669,42.9918991],[-71.4737041,42.9919159],[-71.4747929,42.9918934],[-71.4755452,42.9918943]]]}, "properties": {"osm_id": 11138147, "osm_type": "relations", "status": null, "opening_hours": "24/7", "access": null, "toilets_disposal": null, "toilets_handwashing": null, "operator": "HCA", "operator_type": "private", "health_facility_bed": null, "staff_count_nurses": null, "health_facility_level": null, "medical_system_western": null, "name": "Catholic Medical Center", "amenity": "hospital", "staff_count_doctors": null, "health_facility_type": null}}]}